ASTRA 2E                
1 39285U 13056A   26177.24354792  .00000161  00000+0  00000+0 0  9997
2 39285   0.0629 328.8637 0002545 133.4470 288.2198  1.00270638 46501
FM-6                    
1 39360U 13058A   26177.31279139 -.00000005  00000+0  00000+0 0  9990
2 39360   0.0170  43.7739 0001572 136.9939  89.9747  1.00271143 46169
RADUGA-1M 3             
1 39375U 13062A   26176.81707796  .00000158  00000+0  00000+0 0  9998
2 39375   5.9799  72.2464 0001618 279.2533 251.5824  1.00273832 46193
SES-8                   
1 39460U 13071A   26177.11412248 -.00000259  00000+0  00000+0 0  9995
2 39460   0.0339 278.3842 0003012 175.1603 316.7831  1.00272476 44514
INMARSAT 5-F1           
1 39476U 13073A   26176.03983735  .00000038  00000+0  00000+0 0  9992
2 39476   0.0177  21.8643 0000794 321.8374   6.4461  1.00267228 45657
TKSAT-1 (TUPAC KATARI)  
1 39481U 13075A   26177.31427017 -.00000184  00000+0  00000+0 0  9991
2 39481   0.0439 161.7045 0002829 285.1888 213.4941  1.00272467 45695
EXPRESS-AM5             
1 39487U 13077A   26177.26568200 -.00000269  00000+0  00000+0 0  9997
2 39487   0.0134 298.9134 0000384  93.0931 118.0633  1.00271729 46457
GSAT-14                 
1 39498U 14001A   26177.10996245 -.00000066  00000+0  00000+0 0  9999
2 39498   0.0568  94.6526 0000607 140.8051 152.3503  1.00272207 45467
THAICOM 6               
1 39500U 14002A   26177.18220619 -.00000111  00000+0  00000+0 0  9998
2 39500   0.0510 123.2378 0004743 350.1003 305.0956  1.00273639 45548
TDRS 12                 
1 39504U 14004A   26176.96229956 -.00000264  00000+0  00000+0 0  9991
2 39504   3.9858  19.2457 0003166 187.2743  12.8067  1.00264714 44368
ABS-2                   
1 39508U 14006A   26177.11013579 -.00000075  00000+0  00000+0 0  9997
2 39508   0.0186  15.1337 0004000  64.3837 309.2812  1.00272071 45360
ATHENA-FIDUS            
1 39509U 14006B   26177.24519458  .00000165  00000+0  00000+0 0  9998
2 39509   0.0169  54.1500 0001595  32.3310 313.9643  1.00273872 45177
TURKSAT 4A              
1 39522U 14007A   26176.96109872  .00000157  00000+0  00000+0 0  9998
2 39522   0.0543 294.7451 0000582   3.4687   3.8571  1.00271967 45051
EXPRESS-AT1             
1 39612U 14010A   26177.10788244  .00000025  00000+0  00000+0 0  9999
2 39612   0.2812  85.6448 0004290  42.5676 248.2532  1.00306265 44902
EXPRESS-AT2             
1 39613U 14010B   26177.17769950  .00000000  00000+0  00000+0 0  9993
2 39613   0.0247   7.3327 0000159 267.2735 119.6746  1.00271560 44583
AMAZONAS 4A             
1 39616U 14011A   26177.29777773 -.00000241  00000+0  00000+0 0  9990
2 39616   0.0601 167.5572 0004326 307.8456 192.2253  1.00271508 44809
ASTRA 5B                
1 39617U 14011B   26177.24250791  .00000148  00000+0  00000+0 0  9997
2 39617   0.0537 324.0285 0002201 114.2037 306.9076  1.00272240 44759
IRNSS-1B                
1 39635U 14017A   26173.75560031  .00000117  00000+0  00000+0 0  9992
2 39635  28.9065 240.3095 0023496 164.9008 193.0039  1.00268591 44840
LUCH-5V                 
1 39727U 14023A   26177.11412248 -.00000263  00000+0  00000+0 0  9994
2 39727   5.1552  69.6600 0002426  48.4303 291.9939  1.00272083 44442
KAZSAT-3                
1 39728U 14023B   26176.25138470  .00000070  00000+0  00000+0 0  9996
2 39728   0.0100   3.9050 0000336 115.8455 302.6420  1.00270949 42533
EUTELSAT 3B             
1 39773U 14030A   26177.23852122  .00000031  00000+0  00000+0 0  9997
2 39773   0.0604 352.2742 0004246 100.6217 270.4322  1.00270613 44153
ASIASAT 8 (AMOS-7)      
1 40107U 14046A   26177.11620248 -.00000322  00000+0  00000+0 0  9990
2 40107   0.0402  78.8697 0001707  22.9792 319.5350  1.00270444102237
ASIASAT 6               
1 40141U 14052A   26176.76260818 -.00000351  00000+0  00000+0 0  9990
2 40141   0.0448 268.3353 0001042 200.0286 199.9526  1.00268534 43167
OPTUS 10                
1 40146U 14054A   26177.19753895 -.00000136  00000+0  00000+0 0  9998
2 40146   0.0930 323.1566 0002152 130.6139  47.6830  1.00270971 43123
MEASAT-3B               
1 40147U 14054B   26177.11342913 -.00000231  00000+0  00000+0 0  9992
2 40147   0.0426  46.7604 0002962  22.3045 337.5205  1.00270444 42993
HIMAWARI-8              
1 40267U 14060A   26176.99948780 -.00000265  00000+0  00000+0 0  9998
2 40267   0.0152 307.3027 0001539 150.6858 316.6040  1.00270734 42844
IRNSS-1C                
1 40269U 14061A   26176.68398682 -.00000155  00000+0  00000+0 0  9995
2 40269   6.5386  88.7700 0022592   3.4967 150.6688  1.00267985 42772
INTELSAT 30 (IS-30)     
1 40271U 14062A   26176.36358354 -.00000141  00000+0  00000+0 0  9991
2 40271   0.0269  55.6231 0001489 338.6494 275.0652  1.00272157  6877
ARSAT 1                 
1 40272U 14062B   26177.29874949 -.00000249  00000+0  00000+0 0  9997
2 40272   0.0191 322.4512 0002066 127.2458 220.4748  1.00271635 42716
EUTELSAT 53A            
1 40277U 14064A   26177.24840127  .00000109  00000+0  00000+0 0  9994
2 40277   0.0168 327.4978 0001156 209.9655 239.3424  1.00272316 41651
GSAT-16                 
1 40332U 14078A   26177.24883461  .00000096  00000+0  00000+0 0  9994
2 40332   0.0588 267.5360 0008053 176.7107 334.7720  1.00273645 42199
DIRECTV 14              
1 40333U 14078B   26176.36271689 -.00000116  00000+0  00000+0 0  9994
2 40333   0.0098  19.2836 0000354   6.4271 279.1338  1.00272630 42126
